satname,norad_id,inclination_deg,eccentricity,mean_motion_rev_per_day,perigee_km,apogee_km,l1,l2
STARLINK-1222,45228,53.0556,0.0001451,15.06404098,546.1941319336329,548.2038644403065,1 45228U 20012BC  25268.33343830  .00018070  00000+0  12288-2 0  9994,2 45228  53.0556  28.9302 0001451  72.6245 287.4903 15.06404098310361
STARLINK-1226,45229,53.0554,0.0001322,15.06391886,546.3208919243161,548.1519606582278,1 45229U 20012BD  25267.50042042 -.00003961  00000+0 -24721-3 0  9995,2 45229  53.0554  32.6646 0001322  67.7633 292.3496 15.06391886310245
STARLINK-1227,45230,53.0558,0.0001403,15.06393114,546.2610332532413,548.2042919805708,1 45230U 20012BE  25267.56307199  .00001198  00000+0  99324-4 0  9990,2 45230  53.0558  32.3875 0001403  91.3287 268.7862 15.06393114310374
STARLINK-1238,45233,53.0397,0.0004505,16.02532945,264.41306756946597,270.4007026099316,1 45233U 20012BH  25268.10350833  .00578778  16481-3  95565-3 0  9996,2 45233  53.0397 354.3253 0004505 359.9760   0.1269 16.02532945310924
STARLINK-1246,45235,53.0543,0.0001426,15.06392836,546.2459568180993,548.2210724888782,1 45235U 20012BK  25267.77686340 -.00000618  00000+0 -22628-4 0  9997,2 45235  53.0543  71.4286 0001426  83.5307 276.5845 15.06392836309853
STARLINK-1247,45236,53.0393,0.0003507,15.99947589,272.2308810155564,276.8970854852096,1 45236U 20012BL  25268.33339120  .00432134  91131-4  83064-3 0  9992,2 45236  53.0393 333.1920 0003507   8.6051 188.8017 15.99947589  5926
STARLINK-1270,45237,53.0562,0.0001175,15.06397919,546.4042067059308,548.03166511587,1 45237U 20012BM  25267.58150489 -.00002887  00000+0 -17501-3 0  9991,2 45237  53.0562  32.3057 0001175  90.5393 269.5731 15.06397919310363
STARLINK-1279,45360,53.0544,0.0001336,15.06390656,546.3149657071281,548.165426493927,1 45360U 20019A   25268.07081213 -.00008725  00000+0 -56771-3 0  9997,2 45360  53.0544 160.1121 0001336  95.6310 264.4831 15.06390656305175
STARLINK-1301,45361,53.0539,0.0001103,15.06388336,546.4834367599979,548.0111765380443,1 45361U 20019B   25268.19155245  .00002836  00000+0  20925-3 0  9995,2 45361  53.0539 169.5690 0001103  91.1020 269.0096 15.06388336305069
STARLINK-1306,45362,53.0507,0.0009627,15.57233179,389.1476698140459,402.1899555257605,1 45362U 20019C   25268.20784686  .00140237  00000+0  18618-2 0  9998,2 45362  53.0507 171.5006 0009627 100.9674 259.2420 15.57233179305031
STARLINK-1262,45366,53.0541,0.0001265,15.06377852,546.4033740205141,548.1555043796316,1 45366U 20019G   25268.02382456 -.00005296  00000+0 -33708-3 0  9996,2 45366  53.0541 190.3208 0001265  83.4593 276.6540 15.06377852304767
STARLINK-1273,45367,53.0532,0.0001511,15.06429393,546.0750675359777,548.167880646849,1 45367U 20019H   25267.18341314  .00019579  00000+0  13286-2 0  9996,2 45367  53.0532 194.0960 0001511  89.4554 270.6608 15.06429393304634
STARLINK-1276,45368,53.0555,0.0001482,15.06382936,546.2375127272726,548.2902015413274,1 45368U 20019J   25268.01645040 -.00001944  00000+0 -11171-3 0  9994,2 45368  53.0555 190.3558 0001482 111.5760 248.5387 15.06382936304768
STARLINK-1277,45369,53.0537,0.0001253,15.06383256,546.3951237575384,548.1306289665554,1 45369U 20019K   25268.20819654  .00004909  00000+0  34837-3 0  9996,2 45369  53.0537 190.1242 0001253  52.4981 307.6122 15.06383256304783
STARLINK-1281,45370,53.0541,0.000122,15.06382427,546.4205180809886,548.1103162707795,1 45370U 20019L   25268.13808301  .00000711  00000+0  66621-4 0  9991,2 45370  53.0541 189.8106 0001220  93.3806 266.7323 15.06382427304785
STARLINK-1300,45374,53.054,0.0001444,15.06398589,546.215861497205,548.2159034096576,1 45374U 20019Q   25268.02749472  .00003895  00000+0  28027-3 0  9999,2 45374  53.0540 190.3038 0001444 140.5471 219.5623 15.06398589304763
STARLINK-1302,45375,53.0536,0.0001823,15.06414247,545.9054101973134,548.4303763614034,1 45375U 20019R   25267.51145811  .00000365  00000+0  43419-4 0  9992,2 45375  53.0536 192.6229 0001823  72.6612 287.4577 15.06414247304682
STARLINK-1304,45376,53.053,0.000137,15.06384426,546.3105111246614,548.2080697082356,1 45376U 20019S   25268.12702875 -.00003650  00000+0 -22636-3 0  9999,2 45376  53.0530 189.8600 0001370  81.8370 278.2774 15.06384426304770
STARLINK-1305,45377,53.0539,0.0001339,15.06409607,546.254813794053,548.1094142527882,1 45377U 20019T   25268.21915480  .00026574  00000+0  17957-2 0  9995,2 45377  53.0539 189.4423 0001339  73.6131 286.5005 15.06409607304798
STARLINK-1319,45379,53.0553,0.0001346,15.06391767,546.3046357001604,548.1689463247003,1 45379U 20019V   25268.07910045 -.00000086  00000+0  13149-4 0  9995,2 45379  53.0553 190.0770 0001346  76.6114 283.5025 15.06391767304775
STARLINK-1258,45381,53.0394,0.0004764,16.06820833,252.41865695902015,258.7392615249855,1 45381U 20019X   25268.58113378  .00721103  27587-3  91701-3 0  9999,2 45381  53.0394 109.4284 0004764 224.7012 135.3637 16.06820833305939
STARLINK-1266,45383,53.0533,0.0001285,15.06397164,546.3303414768452,548.1101582900646,1 45383U 20019Z   25268.01462580  .00011763  00000+0  80731-3 0  9993,2 45383  53.0533 170.3693 0001285  90.0714 270.0423 15.06397164305031
STARLINK-1267,45384,53.0536,0.0001287,15.06371845,546.4065468370036,548.1891537674719,1 45384U 20019AA  25268.13264398  .00023823  00000+0  16140-2 0  9996,2 45384  53.0536 170.4919 0001287  75.3771 284.7360 15.06371845305049
STARLINK-1272,45386,53.0547,0.0001262,15.06370677,546.4274398379548,548.1754204977278,1 45386U 20019AC  25268.13993854 -.00001122  00000+0 -56512-4 0  9993,2 45386  53.0547 169.8023 0001262  95.6454 264.4679 15.06370677305058
STARLINK-1274,45387,53.0339,0.00082,15.248934,485.47277280640265,496.7383305911899,1 45387U 20019AD  25267.87262170  .00016283  00000+0  65773-3 0  9994,2 45387  53.0339 161.6329 0008200  84.2808 275.9124 15.24893400305149
STARLINK-1280,45388,53.0533,9.31e-05,15.06393316,546.5872916534008,547.8767953693023,1 45388U 20019AE  25268.19705763  .00006794  00000+0  47461-3 0  9991,2 45388  53.0533 189.5462 0000931  77.0921 283.0172 15.06393316304774
STARLINK-1283,45389,53.0556,0.0001311,15.06396399,546.3146798637836,548.1305091494633,1 45389U 20019AF  25268.11046214 -.00002989  00000+0 -18188-3 0  9991,2 45389  53.0556 169.9366 0001311  96.1391 263.9748 15.06396399305053
STARLINK-1284,45390,53.0533,9.9e-05,15.06381134,546.5837648829101,547.9549953461737,1 45390U 20019AG  25267.95193587  .00017121  00000+0  11661-2 0  9990,2 45390  53.0533 170.6473 0000990 106.8895 253.2203 15.06381134305024
STARLINK-1292,45394,53.0486,0.0005139,15.74352698,343.0180080431601,349.9295630085244,1 45394U 20019AL  25268.33339120  .00139475  00000+0  93367-3 0  9993,2 45394  53.0486 139.1655 0005139 160.3475  38.1462 15.74352698  5949
STARLINK-1297,45395,53.052,0.000144,15.06404405,546.2008090323643,548.1953055288614,1 45395U 20019AM  25267.45801635  .00000328  00000+0  40935-4 0  9999,2 45395  53.0520 172.8646 0001440  78.0075 282.1075 15.06404405304138
STARLINK-1307,45397,53.0534,0.000147,15.06382865,546.246040785205,548.2821087011789,1 45397U 20019AP  25268.11413932  .00013029  00000+0  89237-3 0  9993,2 45397  53.0534 169.9167 0001470  94.5064 265.6093 15.06382865304876
STARLINK-1312,45398,53.0473,0.0010178,15.72573359,344.69587767835037,358.394819066697,1 45398U 20019AQ  25268.33339120  .00171708  00000+0  12322-2 0  9993,2 45398  53.0473 138.6482 0010178 104.5323 285.2880 15.72573359  5937
STARLINK-1255,45399,53.0523,0.0001195,15.06372925,546.4669510876029,548.1221292257014,1 45399U 20019AR  25268.14822330  .00018339  00000+0  12477-2 0  9994,2 45399  53.0523 159.7659 0001195  64.9878 295.1235 15.06372925305005
STARLINK-1259,45403,53.0457,0.0007555,15.85078775,311.0454363577237,321.16043289894696,1 45403U 20019AV  25268.33339120  .00299162  00000+0  12025-2 0  9995,2 45403  53.0457 120.2891 0007555 103.0546 139.5284 15.85078775  6007
STARLINK-1260,45404,53.0523,0.0001519,15.06387081,546.1991866351209,548.3031195560325,1 45404U 20019AW  25268.11506112  .00001055  00000+0  89715-4 0  9993,2 45404  53.0523 159.9142 0001519 105.8278 254.2879 15.06387081304907
STARLINK-1263,45405,53.0535,0.000121,15.06401408,546.3692759710702,548.045209277785,1 45405U 20019AX  25267.43682940  .00002612  00000+0  19419-3 0  9995,2 45405  53.0535 162.9557 0001210  84.8021 275.3106 15.06401408304801
STARLINK-1265,45406,53.054,0.0001614,15.06380647,546.1531119002993,548.388633561618,1 45406U 20019AY  25268.10768681 -.00001932  00000+0 -11093-3 0  9994,2 45406  53.0540 159.9460 0001614 102.2863 257.8307 15.06380647304904
STARLINK-1278,45408,53.0539,0.0001417,15.06391283,546.2569487402479,548.2196000930171,1 45408U 20019BA  25268.00170634 -.00000235  00000+0  31256-5 0  9999,2 45408  53.0539 190.4226 0001417 109.2752 250.8391 15.06391283304475
STARLINK-1296,45412,53.0535,0.0001205,15.06373481,546.4583217509644,548.1273503414504,1 45412U 20019BE  25268.11136844  .00020931  00000+0  14209-2 0  9991,2 45412  53.0535 159.9305 0001205  65.7336 294.3779 15.06373481304904
STARLINK-1298,45413,53.049,0.0010434,15.4323058,429.47165163363024,443.6926075132242,1 45413U 20019BF  25268.16035076  .00104106  00000+0  22819-2 0  9995,2 45413  53.0490 146.5415 0010434 114.1109 246.0988 15.43230580305191
STARLINK-1309,45414,53.0539,0.0001445,15.06385931,546.2539586351359,548.2553968299999,1 45414U 20019BG  25268.12611720  .00000079  00000+0  24219-4 0  9990,2 45414  53.0539 159.8635 0001445  80.2363 279.8789 15.06385931304893
STARLINK-1316,45415,53.0544,0.0001307,15.06403673,546.2951591599522,548.1054423303667,1 45415U 20019BH  25268.01922005 -.00001363  00000+0 -72608-4 0  9994,2 45415  53.0544 160.3405 0001307  84.7993 275.3146 15.06403673304912
STARLINK-1318,45416,53.0528,8.33e-05,15.55916351,398.9256411676415,400.05479386208026,1 45416U 20019BJ  25268.06337068  .00057661  00000+0  81771-3 0  9999,2 45416  53.0528 141.2024 0000833 159.9341 200.1702 15.55916351305174
